LEMUR-1                 
1 40044U 14033AL  24153.01785718  .00002572  00000+0  34840-3 0  9992
2 40044  97.6981 315.8370 0054461   1.0197 359.1116 14.78769102535317
LEMUR-2-ANUBHAVTHAKUR   
1 41873U 16062E   24153.23715114  .00170970  00000+0  90427-3 0  9995
2 41873  51.6602 146.2479 0008254  23.2483 336.8890 15.79508107419609
LEMUR-2-GREENBERG       
1 42837U 17042N   24153.08110639  .00010945  00000+0  79100-3 0  9999
2 42837  97.3639 342.5478 0016286  88.8120 271.4972 15.04113276375227
LEMUR-2-ANDIS           
1 42838U 17042P   24153.03897141  .00009563  00000+0  69872-3 0  9994
2 42838  97.3643 342.2745 0018881  94.3169 266.0216 15.03700738375219
LEMUR-2-MONSON          
1 42839U 17042Q   24153.11050570  .00008764  00000+0  65561-3 0  9994
2 42839  97.3979 342.2365 0013639  78.0909 282.1846 15.02905008375176
LEMUR-2-FURIAUS         
1 42840U 17042R   24152.47290034  .00011499  00000+0  85744-3 0  9999
2 42840  97.3669 341.7625 0014363 137.9949 222.2381 15.02945873375073
LEMUR-2-PETERG          
1 42841U 17042S   24153.09128671  .00009888  00000+0  72984-3 0  9997
2 42841  97.3917 344.0662 0007333  74.4841 285.7194 15.03430055375249
LEMUR-2-DEMBITZ         
1 42842U 17042T   24153.47679362  .00009003  00000+0  66689-3 0  9992
2 42842  97.3818 344.2309 0012683  94.3149 265.9527 15.03278082375325
LEMUR-2-ZACHARY         
1 42845U 17042W   24152.99342584  .00013398  00000+0  88807-3 0  9992
2 42845  97.3794 344.2544 0009752 127.5531 232.6585 15.07361987375426
LEMUR-2-JIN-LUEN        
1 43182U 18014C   24153.20197806  .00012192  00000+0  70939-3 0  9995
2 43182  97.5897  56.4334 0014342  54.8728 305.3844 15.12110716346339
LEMUR-2-URAMCHANSOL     
1 43183U 18014D   24153.20768964  .00019086  00000+0  10127-2 0  9996
2 43183  97.5909  57.8884 0014485  45.2997 314.9412 15.15300632346427
LEMUR-2-KADI            
1 43184U 18014E   24153.23067469  .00012314  00000+0  69812-3 0  9995
2 43184  97.5700  55.9558 0012129  35.7542 324.4498 15.13065048346356
LEMUR-2-THENICKMOLO     
1 43185U 18014F   24153.27412921  .00015386  00000+0  83607-3 0  9997
2 43185  97.5858  57.0738 0009226  40.3122 319.8792 15.14557403346395
LEMUR-2-CHRISTINAHOLT   
1 43882U 18111G   24153.30956362  .00020036  00000+0  96303-3 0  9990
2 43882  97.6353  65.9967 0008916  40.3174 319.8720 15.18819339295379
LEMUR-2-TINYKEV         
1 43883U 18111H   24153.20537423  .00028007  00000+0  12075-2 0  9992
2 43883  97.6139  66.0496 0009418  43.6282 316.5697 15.22483610295466
LEMUR-2-REMY-COLTON     
1 43884U 18111J   24153.32146924  .00021443  00000+0  10215-2 0  9999
2 43884  97.6297  66.6592 0003756  78.3545 281.8110 15.19143576295443
LEMUR-2-GUSTAVO         
1 43885U 18111K   24153.32642743  .00020188  00000+0  98338-3 0  9998
2 43885  97.6284  65.7382 0013822  35.2003 325.0140 15.18304452295381
LEMUR-2-ZO              
1 43886U 18111L   24152.74651680  .00030954  00000+0  15162-2 0  9999
2 43886  97.6174  64.6428 0013325  53.5584 306.6875 15.18023554297309
LEMUR-2-NATALIEMURRAY   
1 43887U 18111M   24152.69591815  .00032189  00000+0  15487-2 0  9999
2 43887  97.6310  66.1048 0008458  12.7440 347.4006 15.18685950297332
LEMUR-2-SARAHBETTYBOO   
1 43888U 18111N   24153.00800106  .00024047  00000+0  11271-2 0  9993
2 43888  97.6667  69.5471 0013230  78.1850 282.0868 15.19610674297411
LEMUR-2-DAISY-HARPER    
1 43889U 18111P   24153.33914913  .00019958  00000+0  87155-3 0  9992
2 43889  97.6516  69.9415 0011415  76.5565 283.6942 15.22100958297508
LEMUR-2-ALEX-MADDY      
1 44407U 19038X   24152.93819343  .00195970  00000+0  12746-2 0  9996
2 44407  97.6549 156.3448 0012797 122.4871 237.7632 15.75269240272409
LEMUR-2-JPGSQUARED      
1 44855U 19089D   24153.18482233  .00070862  00000+0  16085-2 0  9993
2 44855  36.9638  88.5233 0005977 294.8632  65.1502 15.41928089246462
LEMUR-2-HIMOMANDDAD     
1 44860U 19089J   24153.18244605  .00118356  00000+0  19953-2 0  9996
2 44860  36.9609  83.7113 0008220 275.7467  84.2353 15.50337423246493
LEMUR-2-PAPPY           
1 44861U 19089K   24153.20085566  .00059543  00000+0  16364-2 0  9994
2 44861  36.9580 101.6394 0004847 279.4313  80.5892 15.36164663246265
LEMUR-2-THEODOSIA       
1 44863U 19089M   24153.15784262  .00073923  00000+0  15974-2 0  9993
2 44863  36.9646  86.3273 0006104 301.5069  58.5090 15.43376101246331
LEMUR-2-SLICERS         
1 46500U 20068Q   24152.88282491  .00067960  00000+0  14303-2 0  9997
2 46500  97.7808 121.6417 0005543  48.4643 311.7079 15.45037419202522
LEMUR-2-DAYWZAGOODDAY   
1 46501U 20068R   24152.85845563  .00048287  00000+0  12197-2 0  9990
2 46501  97.7885 121.1482 0007035  34.6790 325.4913 15.39640631202464
LEMUR-2-SUSURRUS        
1 46502U 20068S   24152.88360106  .00069841  00000+0  14673-2 0  9999
2 46502  97.7849 121.7399 0005997  46.4418 313.7327 15.45078263202520
LEMUR-2-NICHOL          
1 46503U 20068T   24153.45446912  .00038747  00000+0  10980-2 0  9992
2 46503  97.7910 120.3052 0008013  30.5399 329.6309 15.36127408202471
LEMUR-2-OZARAK          
1 46908U 20081D   24152.59827272  .00058933  00000+0  16524-2 0  9991
2 46908  36.8957 231.3519 0003777 174.2589 185.8207 15.35546629196341
LEMUR-2-JINDRA          
1 46909U 20081E   24153.51702598  .00082540  00000+0  16045-2 0  9997
2 46909  36.8936 206.9788 0005660 153.6666 206.4378 15.46434476196690
LEMUR-2-WALLACE         
1 46910U 20081F   24153.23732561  .00072176  00000+0  15745-2 0  9991
2 46910  36.8889 214.9645 0004572 183.8894 176.1825 15.43108799196579
LEMUR-2-JEREMIAH        
1 46911U 20081G   24153.53333994  .00042975  00000+0  12588-2 0  9998
2 46911  36.9024 225.1804 0004363 191.1288 168.9368 15.34264200196504
LEMUR-2-CHANTAL         
1 47529U 21006DV  24153.16340263  .00376350  00000+0  17032-2 0  9994
2 47529  97.3241 220.6186 0010451 225.0445 134.9978 15.82926027187664
LEMUR-2-AMANDA-SVANTE   
1 48269U 21034B   24153.12921566  .00011742  00000+0  97818-3 0  9996
2 48269  97.6627 218.7903 0003238 172.7047 187.4224 14.98784690168090
LEMUR-2-SPECIAL-K       
1 48273U 21034F   24153.14422435  .00012903  00000+0  10450-2 0  9990
2 48273  97.6661 219.0530 0001850 193.0130 167.1046 14.99850684168129
LEMUR-2-ANNABANANA      
1 48923U 21059AW  24153.42645835  .00177912  00000+0  68007-3 0  9995
2 48923  97.5726 319.3379 0003844 217.0236 143.0770 15.87012685164061
LEMUR-2-ROHOVITHSA      
1 51036U 22002BE  24153.14892847  .00143740  00000+0  16508-2 0  9999
2 51036  97.3880 228.4110 0002805 151.7733 208.3677 15.61567199132494
LEMUR-2-MIRIWARI        
1 51054U 22002BY  24153.20400456  .00265086  00000+0  16378-2 0  9990
2 51054  97.3799 229.9954 0006923 224.1927 135.8786 15.76342050132612
LEMUR-2-DJIRANG         
1 51058U 22002CC  24153.20597245  .00336774  00000+0  20648-2 0  9995
2 51058  97.3767 229.7197 0006536 229.3334 130.7364 15.76327823132614
LEMUR-2-HANCOM-1        
1 52740U 22057J   24152.88189703  .00158054  00000+0  13731-2 0  9991
2 52740  97.5732 286.6014 0004424 246.6156 113.4640 15.68576756112496
LEMUR-2-PHILARI         
1 55013U 23001E   24152.87621989  .00126010  00000+0  20321-2 0  9993
2 55013  97.4221 219.1598 0007697 205.7936 154.2933 15.52439354 78583
LEMUR-2-DISCLAIMER      
1 55014U 23001F   24153.15736977  .00162554  00000+0  20385-2 0  9993
2 55014  97.4205 220.2598 0008592 213.5297 146.5416 15.59155843 78665
LEMUR-2-STEVEALBERS     
1 55017U 23001J   24153.18490044  .00063455  00000+0  13064-2 0  9997
2 55017  97.4204 218.3469 0006969 188.7472 171.3657 15.45695956 78567
LEMUR-2-MMOLO           
1 55038U 23001AF  24153.18399719  .00052041  00000+0  12156-2 0  9997
2 55038  97.4313 219.7125 0011566 199.5373 160.5432 15.41951308 78613
LEMUR-2-FUENTETAJA-01   
1 55088U 23001CH  24153.14587111  .00147387  00000+0  21691-2 0  9995
2 55088  97.4292 220.5972 0010300 194.9168 165.1783 15.54870077 78662
LEMUR-2-ONREFLECTION    
1 56182U 23054E   24153.16984780  .00050285  00000+0  10090-2 0  9995
2 56182  97.3578  51.5222 0004843 188.0027 172.1146 15.46520229 63754
LEMUR-2-SPACEGUS        
1 56187U 23054K   24153.21856402  .00121217  00000+0  19454-2 0  9992
2 56187  97.3571  52.1338 0007103 158.1428 202.0129 15.52596474 63792
LEMUR-2-EMBRIONOVIS     
1 56970U 23084AQ  24152.87287165  .00007810  00000+0  36627-3 0  9994
2 56970  97.5462 271.8061 0014634  72.3177 287.9654 15.19855142 53642
LEMUR-2-NAZIYAH         
1 56974U 23084AU  24153.31639993  .00038943  00000+0  11961-2 0  9992
2 56974  97.5299 274.3388 0008307  47.6789 312.5156 15.33581072 53880
LEMUR-2-AADAM-ALIYAH    
1 56977U 23084AX  24152.85834401  .00035943  00000+0  11057-2 0  9997
2 56977  97.5325 273.9775 0008719  53.3032 306.9010 15.33546130 53815
LEMUR-2-MANO            
1 57390U 23100E   24153.50240767  .00010221  00000+0  72846-3 0  9991
2 57390  99.4946 353.9175 0013008 346.3400  13.7466 15.04788616 47927
LEMUR-2-DEVERILL-M-T    
1 57391U 23100F   24153.12435511  .00006623  00000+0  48007-3 0  9996
2 57391  99.4727 353.0132 0012866 346.8732  13.2152 15.04349529 47870
LEMUR-2-BASS            
1 58259U 23174D   24153.16478954  .00011066  00000+0  54993-3 0  9991
2 58259  97.4531 227.5402 0010399 304.9620  55.0637 15.17778334 31251
LEMUR-2-DILIGHTFUL      
1 58260U 23174E   24153.15753564  .00009061  00000+0  40625-3 0  9994
2 58260  97.4592 228.1707 0009489 296.5155  63.5108 15.21408522 31286
LEMUR-2-GOOD-VIBES      
1 58263U 23174H   24153.15860491  .00013135  00000+0  58717-3 0  9993
2 58263  97.4526 228.0165 0008839 301.8512  58.1863 15.21416710 31284
LEMUR-2-SANITA-VETRA    
1 58267U 23174M   24153.15560501  .00024158  00000+0  10798-2 0  9999
2 58267  97.4524 227.9848 0008597 297.9308  62.1057 15.21288661 31283
LEMUR-2-MARAPAMASM      
1 58332U 23174CE  24153.15753539  .00023586  00000+0  92744-3 0  9993
2 58332  97.4516 228.8691 0007977 256.2001 103.8349 15.25635566 31340
LEMUR-2-THE-CLEANER     
1 58333U 23174CF  24153.12438466  .00014784  00000+0  63544-3 0  9996
2 58333  97.4527 228.4858 0008764 252.6084 107.4194 15.22728559 31317
LEMUR-2-MANGO2A         
1 58335U 23174CH  24153.17166174  .00041950  00000+0  13932-2 0  9997
2 58335  97.4509 229.4796 0008917 242.6585 117.3749 15.31052773 31387
LEMUR-2-JK0903EM1407    
1 58336U 23174CJ  24153.16764964  .00011413  00000+0  53317-3 0  9991
2 58336  97.4527 228.1237 0008118 258.2482 101.7842 15.19938107 31297
LEMUR-2-MANGO2B         
1 58337U 23174CK  24153.17106804  .00042964  00000+0  14268-2 0  9992
2 58337  97.4560 229.6265 0009787 248.4114 111.6085 15.31041308 31389
LEMUR-2-MJR092620       
1 58340U 23174CN  24153.20967139  .00011098  00000+0  51451-3 0  9996
2 58340  97.4592 228.3821 0009309 255.3016 104.7188 15.20200301 31307
